0 FENGYUN 1C DEB
1 32334U 99025CYB 13281.05927204  .00000726  00000-0  54181-3 0  4727
2 32334 099.0637 226.6449 0068372 214.0488 206.2908 13.96969257317417
0 FENGYUN 1C DEB
1 32334U 99025CYB 13283.06470087  .00000807  00000-0  59895-3 0  4730
2 32334 099.0642 228.6218 0068375 208.4760 211.8547 13.96972898317698
0 FENGYUN 1C DEB
1 32334U 99025CYB 13287.07525612  .00000691  00000-0  51681-3 0  4758
2 32334 099.0658 232.5750 0068521 197.4120 221.4476 13.96980554318259
0 FENGYUN 1C DEB
1 32334U 99025CYB 13289.08116094  .00000574  00000-0  43478-3 0  4767
2 32334 099.0665 234.5526 0068626 191.9151 229.4022 13.96985843318531
0 FENGYUN 1C DEB
1 32334U 99025CYB 13291.08590544  .00000419  00000-0  32571-3 0  4777
2 32334 099.0668 236.5293 0068743 186.4363 231.5396 13.96989325318819
0 FENGYUN 1C DEB
1 32334U 99025CYB 13294.09432992  .00000324  00000-0  25875-3 0  4788
2 32334 099.0669 239.4962 0068943 178.2271 241.3563 13.96993242319239
